STARLINK-30367          
1 57791U 23134W   26068.40543344 -.00001439  00000+0 -43988-4 0  9995
2 57791  42.9993 196.0560 0001081 246.0553 114.0185 15.26733576139467
KUIPER-00209            
1 67776U 26030N   26068.61786546  .00035298  00000+0  11963-2 0  9997
2 67776  51.8838 220.0775 0012191  59.1967 301.0215 15.30161950  5077
